[{"OBJECT_NAME":"STARLINK-30411","OBJECT_ID":"2023-138W","EPOCH":"2026-03-09T22:00:01.999584","MEAN_MOTION":15.26712833,"ECCENTRICITY":0.0001639,"INCLINATION":43.0001,"RA_OF_ASC_NODE":232.7072,"ARG_OF_PERICENTER":280.3174,"MEAN_ANOMALY":128.4462,"EPHEMERIS_TYPE":0,"CLASSIFICATION_TYPE":"U","NORAD_CAT_ID":57828,"ELEMENT_SET_NO":999,"REV_AT_EPOCH":572,"BSTAR":0.0033292754,"MEAN_MOTION_DOT":0.00090067,"MEAN_MOTION_DDOT":0},{"OBJECT_NAME":"TOMORROW-S3","OBJECT_ID":"2024-247R","EPOCH":"2026-03-09T11:56:51.820800","MEAN_MOTION":15.27672122,"ECCENTRICITY":3.967e-5,"INCLINATION":44.9999,"RA_OF_ASC_NODE":117.9871,"ARG_OF_PERICENTER":320.9462,"MEAN_ANOMALY":39.1392,"EPHEMERIS_TYPE":0,"CLASSIFICATION_TYPE":"U","NORAD_CAT_ID":62392,"ELEMENT_SET_NO":999,"REV_AT_EPOCH":6770,"BSTAR":0.00028857954,"MEAN_MOTION_DOT":7.664e-5,"MEAN_MOTION_DDOT":0}]
